H1 CPF 01  gfz 2022 04 21 00  6111 tandemx   
H2 1003001  6202 36605    2022 04 21 00 59 42 2022 04 26 00 00 42   120 1 1  0 0 0
H9
10 0 59692  46062.000000  0   -1587025.498  -6352051.332  -2152858.852
10 0 59692  46182.000000  0   -1677781.036  -5979555.694  -2990469.625
10 0 59692  46302.000000  0   -1731857.700  -5501593.318  -3775598.874
10 0 59692  46422.000000  0   -1746578.913  -4927260.272  -4494537.585
10 0 59692  46542.000000  0   -1720129.532  -4267352.604  -5134767.682
10 0 59692  46662.000000  0   -1651611.449  -3534153.069  -5685173.126
10 0 59692  46782.000000  0   -1541079.288  -2741194.743  -6136224.021
10 0 59692  46902.000000  0   -1389555.531  -1903005.731  -6480131.234
10 0 59692  47022.000000  0   -1199025.337  -1034841.024  -6710968.917
10 0 59692  47142.000000  0    -972411.982   -152407.077  -6824765.974
10 0 59692  47262.000000  0    -713532.588    728417.320  -6819566.396
10 0 59692  47382.000000  0    -427034.388   1591859.275  -6695458.708
10 0 59692  47502.000000  0    -118313.995   2422526.610  -6454574.513
10 0 59692  47622.000000  0     206580.298   3205676.089  -6101057.563
10 0 59692  47742.000000  0     541063.556   3927472.788  -5641000.863
10 0 59692  47862.000000  0     878142.875   4575233.863  -5082351.077
10 0 59692  47982.000000  0    1210558.043   5137654.963  -4434783.451
10 0 59692  48102.000000  0    1530932.815   5605015.446  -3709544.977
10 0 59692  48222.000000  0    1831933.233   5969355.938  -2919267.666
10 0 59692  48342.000000  0    2106429.621   6224625.588  -2077754.979
10 0 59692  48462.000000  0    2347659.021   6366795.081  -1199742.966
10 0 59692  48582.000000  0    2549383.679   6393930.511   -300639.805
10 0 59692  48702.000000  0    2706041.327   6306225.258    603750.066
10 0 59692  48822.000000  0    2812883.218   6105989.230   1497510.749
10 0 59692  48942.000000  0    2866096.370   5797596.103   2364903.056
10 0 59692  49062.000000  0    2862907.180   5387389.271   3190649.887
10 0 59692  49182.000000  0    2801663.878   4883548.519   3960212.741
10 0 59692  49302.000000  0    2681895.496   4295921.779   4660053.852
10 0 59692  49422.000000  0    2504343.446   3635822.913   5277878.462
10 0 59692  49542.000000  0    2270967.653   2915804.389   5802847.556
10 0 59692  49662.000000  0    1984929.644   2149412.660   6225763.446
10 0 59692  49782.000000  0    1650550.054   1350928.107   6539227.016
10 0 59692  49902.000000  0    1273241.599    535094.392   6737760.732
10 0 59692  50022.000000  0     859420.087   -283154.233   6817897.398
10 0 59692  50142.000000  0     416395.016  -1088965.166   6778238.375
10 0 59692  50262.000000  0     -47759.852  -1867837.582   6619477.030
10 0 59692  50382.000000  0    -524353.843  -2605883.350   6344386.983
10 0 59692  50502.000000  0   -1004241.463  -3290075.556   5957775.298
10 0 59692  50622.000000  0   -1477995.093  -3908478.951   5466401.990
10 0 59692  50742.000000  0   -1936088.444  -4450461.152   4878869.757
10 0 59692  50862.000000  0   -2369088.856  -4906882.357   4205481.149
10 0 59692  50982.000000  0   -2767853.382  -5270258.402   3458062.394
10 0 59692  51102.000000  0   -3123722.492  -5534891.261   2649755.903
10 0 59692  51222.000000  0   -3428707.202  -5696963.970   1794787.801
10 0 59692  51342.000000  0   -3675666.240  -5754599.427    908213.990
10 0 59692  51462.000000  0   -3858468.712  -5707880.396      5648.733
10 0 59692  51582.000000  0   -3972137.894  -5558830.157   -897018.280
10 0 59692  51702.000000  0   -4012972.216  -5311353.670  -1783911.144
10 0 59692  51822.000000  0   -3978640.004  -4971139.975  -2639455.745
10 0 59692  51942.000000  0   -3868245.703  -4545529.240  -3448659.641
10 0 59692  52062.000000  0   -3682366.020  -4043348.857  -4197377.440
10 0 59692  52182.000000  0   -3423056.325  -3474723.965  -4872556.598
10 0 59692  52302.000000  0   -3093827.848  -2850867.032  -5462460.235
10 0 59692  52422.000000  0   -2699596.653  -2183851.472  -5956862.792
10 0 59692  52542.000000  0   -2246606.276  -1486375.274  -6347217.295
10 0 59692  52662.000000  0   -1742324.733   -771518.280  -6626792.257
10 0 59692  52782.000000  0   -1195319.121    -52498.601  -6790775.572
10 0 59692  52902.000000  0    -615111.413    657566.675  -6836347.137
10 0 59692  53022.000000  0     -12015.785   1345894.451  -6762722.349
10 0 59692  53142.000000  0     603039.500   2000259.398  -6571163.918
10 0 59692  53262.000000  0    1218704.854   2609206.282  -6264965.014
10 0 59692  53382.000000  0    1823414.914   3162248.124  -5849398.781
10 0 59692  53502.000000  0    2405601.529   3650046.606  -5331636.337
10 0 59692  53622.000000  0    2953912.400   4064571.274  -4720634.127
10 0 59692  53742.000000  0    3457431.714   4399237.112  -4026990.878
10 0 59692  53862.000000  0    3905899.000   4649016.360  -3262773.815
10 0 59692  53982.000000  0    4289921.772   4810521.287  -2441315.821
10 0 59692  54102.000000  0    4601175.328   4882054.883  -1576986.101
10 0 59692  54222.000000  0    4832586.456   4863629.840   -684939.635
10 0 59692  54342.000000  0    4978495.508   4756952.043    219153.181
10 0 59692  54462.000000  0    5034789.899   4565369.522   1119388.004
10 0 59692  54582.000000  0    4999008.918   4293789.630   1999913.215
10 0 59692  54702.000000  0    4870417.071   3948564.363   2845218.327
10 0 59692  54822.000000  0    4650040.489   3537345.438   3640416.588
10 0 59692  54942.000000  0    4340666.451   3068914.693   4371513.406
10 0 59692  55062.000000  0    3946808.311   2552994.454   5025655.345
10 0 59692  55182.000000  0    3474635.748   2000042.765   5591357.908
10 0 59692  55302.000000  0    2931870.271   1421037.950   6058704.167
10 0 59692  55422.000000  0    2327653.368    827257.516   6419513.111
10 0 59692  55542.000000  0    1672388.031    230057.177   6667475.546
10 0 59692  55662.000000  0     977556.991   -359344.933   6798259.484
10 0 59692  55782.000000  0     255519.487   -930078.977   6809582.614
10 0 59692  55902.000000  0    -480709.349  -1471823.857   6701248.850
10 0 59692  56022.000000  0   -1217693.018  -1974993.703   6475150.847
10 0 59692  56142.000000  0   -1941817.710  -2430907.376   6135237.322
10 0 59692  56262.000000  0   -2639541.378  -2831938.074   5687449.051
10 0 59692  56382.000000  0   -3297648.359  -3171644.059   5139623.716
10 0 59692  56502.000000  0   -3903504.990  -3444875.953   4501364.018
10 0 59692  56622.000000  0   -4445306.515  -3647857.209   3783872.726
10 0 59692  56742.000000  0   -4912312.103  -3778237.279   2999759.064
10 0 59692  56862.000000  0   -5295063.815  -3835116.634   2162818.735
10 0 59692  56982.000000  0   -5585584.662  -3819042.899   1287788.575
10 0 59692  57102.000000  0   -5777548.607  -3731976.103    390081.075
10 0 59692  57222.000000  0   -5866419.088  -3577224.605   -514494.565
10 0 59692  57342.000000  0   -5849552.368  -3359353.682  -1410020.044
10 0 59692  57462.000000  0   -5726261.553  -3084067.777  -2280758.212
10 0 59692  57582.000000  0   -5497839.866  -2758070.335  -3111436.346
10 0 59692  57702.000000  0   -5167544.987  -2388906.155  -3887517.956
10 0 59692  57822.000000  0   -4740544.673  -1984789.607  -4595457.448
10 0 59692  57942.000000  0   -4223826.137  -1554423.888  -5222933.434
10 0 59692  58062.000000  0   -3626071.390  -1106814.997  -5759056.961
10 0 59692  58182.000000  0   -2957502.132   -651084.757  -6194550.612
10 0 59692  58302.000000  0   -2229698.740   -196287.461  -6521897.550
10 0 59692  58422.000000  0   -1455396.137    248766.190  -6735459.628
10 0 59692  58542.000000  0    -648261.541    675674.581  -6831563.173
10 0 59692  58662.000000  0     177342.032   1076599.415  -6808555.121
10 0 59692  58782.000000  0    1006604.232   1444405.247  -6666828.148
10 0 59692  58902.000000  0    1824526.744   1772783.347  -6408817.408
10 0 59692  59022.000000  0    2616189.279   2056359.007  -6038963.144
10 0 59692  59142.000000  0    3367017.821   2290779.066  -5563641.834
10 0 59692  59262.000000  0    4063049.852   2472778.899  -4991066.475
10 0 59692  59382.000000  0    4691195.631   2600228.709  -4331157.132
10 0 59692  59502.000000  0    5239489.624   2672157.241  -3595379.217
10 0 59692  59622.000000  0    5697325.027   2688752.076  -2796552.657
10 0 59692  59742.000000  0    6055668.872   2651336.853  -1948635.442
10 0 59692  59862.000000  0    6307250.958   2562324.477  -1066480.398
10 0 59692  59982.000000  0    6446720.001   2425147.059   -165573.128
10 0 59692  60102.000000  0    6470764.111   2244164.015    738246.207
10 0 59692  60222.000000  0    6378189.115   2024549.777   1629068.194
10 0 59692  60342.000000  0    6169958.001   1772166.530   2491202.094
10 0 59692  60462.000000  0    5849185.088   1493421.781   3309462.099
10 0 59692  60582.000000  0    5421086.461   1195116.176   4069442.238
10 0 59692  60702.000000  0    4892887.248    884285.243   4757774.936
10 0 59692  60822.000000  0    4273691.261    568039.990   5362366.901
10 0 59692  60942.000000  0    3574314.636    253408.656   5872611.485
10 0 59692  61062.000000  0    2807086.482    -52815.705   6279570.355
10 0 59692  61182.000000  0    1985625.064   -344217.489   6576123.257
10 0 59692  61302.000000  0    1124592.252   -614889.771   6757087.561
10 0 59692  61422.000000  0     239428.396   -859552.347   6819304.452
10 0 59692  61542.000000  0    -653925.806  -1073653.443   6761689.440
10 0 59692  61662.000000  0   -1539315.694  -1253454.304   6585249.288
10 0 59692  61782.000000  0   -2400663.424  -1396094.422   6293064.446
10 0 59692  61902.000000  0   -3222257.934  -1499636.246   5890239.018
10 0 59692  62022.000000  0   -3989043.632  -1563090.335   5383819.555
10 0 59692  62142.000000  0   -4686901.716  -1586420.829   4782677.720
10 0 59692  62262.000000  0   -5302917.154  -1570529.471   4097359.687
10 0 59692  62382.000000  0   -5825625.508  -1517218.305   3339903.825
10 0 59692  62502.000000  0   -6245234.317  -1429132.012   2523631.220
99
